{
  "type": "FeatureCollection",
  "features": [
    {
      "type": "Feature",
      "properties": {
        "name": "Dal Lake",
        "source": "India-WRIS (Water Resources Information System, Ministry of Jal Shakti), via yashveeeeeeer/india-geodata release water/waterbodies/WRIS_Lakes, objectid 757, district Srinagar, state JK, CC0",
        "area_ha": 1400.39357567,
        "district": "Srinagar"
      },
      "geometry": {
        "type": "Polygon",
        "coordinates": [
          [
            [
              74.8450145,
              34.1498444
            ],
            [
              74.8463691,
              34.1495989
            ],
            [
              74.8498563,
              34.1499106
            ],
            [
              74.850814,
              34.1496597
            ],
            [
              74.8500255,
              34.1493849
            ],
            [
              74.8489949,
              34.1493048
            ],
            [
              74.8485291,
              34.1487704
            ],
            [
              74.8486228,
              34.1480455
            ],
            [
              74.8485617,
              34.1471206
            ],
            [
              74.848498,
              34.1463276
            ],
            [
              74.8503157,
              34.1467485
            ],
            [
              74.8526097,
              34.1471758
            ],
            [
              74.8548308,
              34.1472721
            ],
            [
              74.8573133,
              34.1461837
            ],
            [
              74.8610174,
              34.1435276
            ],
            [
              74.8665667,
              34.1358138
            ],
            [
              74.8670583,
              34.1350283
            ],
            [
              74.8744236,
              34.1318272
            ],
            [
              74.8757932,
              34.1307895
            ],
            [
              74.877269,
              34.128367
            ],
            [
              74.8783672,
              34.1249493
            ],
            [
              74.8796969,
              34.1218648
            ],
            [
              74.8807694,
              34.1197669
            ],
            [
              74.8811366,
              34.1171975
            ],
            [
              74.8800539,
              34.1157308
            ],
            [
              74.8789726,
              34.1141981
            ],
            [
              74.8782816,
              34.1130007
            ],
            [
              74.8772362,
              34.1096203
            ],
            [
              74.8759924,
              34.1082834
            ],
            [
              74.8758504,
              34.1074234
            ],
            [
              74.8769151,
              34.1057215
            ],
            [
              74.8771736,
              34.1046688
            ],
            [
              74.8772568,
              34.1003794
            ],
            [
              74.876502,
              34.098389
            ],
            [
              74.8743666,
              34.0980303
            ],
            [
              74.8733431,
              34.0976204
            ],
            [
              74.8727175,
              34.09715
            ],
            [
              74.8734125,
              34.0940569
            ],
            [
              74.8724799,
              34.0930543
            ],
            [
              74.8663135,
              34.0919149
            ],
            [
              74.8637844,
              34.0914186
            ],
            [
              74.8629248,
              34.0907469
            ],
            [
              74.8624696,
              34.0896846
            ],
            [
              74.8634356,
              34.0889716
            ],
            [
              74.864862,
              34.0890569
            ],
            [
              74.8654991,
              34.0889335
            ],
            [
              74.8658318,
              34.0881459
            ],
            [
              74.8628251,
              34.0836826
            ],
            [
              74.8560316,
              34.0822042
            ],
            [
              74.8549174,
              34.082387
            ],
            [
              74.8506281,
              34.0866851
            ],
            [
              74.8492628,
              34.0875245
            ],
            [
              74.8478936,
              34.088562
            ],
            [
              74.8470067,
              34.0892759
            ],
            [
              74.8463722,
              34.0892672
            ],
            [
              74.8455725,
              34.0895863
            ],
            [
              74.8447794,
              34.0895755
            ],
            [
              74.8429708,
              34.0887586
            ],
            [
              74.840312,
              34.0868078
            ],
            [
              74.8347544,
              34.0830348
            ],
            [
              74.8300379,
              34.0808574
            ],
            [
              74.8292396,
              34.0811104
            ],
            [
              74.8325389,
              34.0827402
            ],
            [
              74.8366119,
              34.0853707
            ],
            [
              74.8388077,
              34.0866551
            ],
            [
              74.840767,
              34.0878702
            ],
            [
              74.8405979,
              34.0883959
            ],
            [
              74.8398775,
              34.0887161
            ],
            [
              74.8373591,
              34.0876913
            ],
            [
              74.8371447,
              34.0865002
            ],
            [
              74.8364427,
              34.0858965
            ],
            [
              74.835335,
              34.0857492
            ],
            [
              74.8347005,
              34.0857404
            ],
            [
              74.8335253,
              34.0849981
            ],
            [
              74.8330639,
              34.0842657
            ],
            [
              74.8324307,
              34.0841909
            ],
            [
              74.8317221,
              34.0839171
            ],
            [
              74.8310719,
              34.0847002
            ],
            [
              74.8312755,
              34.0864193
            ],
            [
              74.8314118,
              34.0875433
            ],
            [
              74.8340966,
              34.0881744
            ],
            [
              74.8366295,
              34.0884734
            ],
            [
              74.8385212,
              34.0890935
            ],
            [
              74.8386668,
              34.0897556
            ],
            [
              74.8403259,
              34.0901084
            ],
            [
              74.8414402,
              34.0899257
            ],
            [
              74.8448247,
              34.0912923
            ],
            [
              74.8442407,
              34.0927365
            ],
            [
              74.849091,
              34.0922088
            ],
            [
              74.8510752,
              34.0921699
            ],
            [
              74.8520986,
              34.0925799
            ],
            [
              74.8545614,
              34.0924154
            ],
            [
              74.85711,
              34.0919221
            ],
            [
              74.857716,
              34.0933825
            ],
            [
              74.8574951,
              34.0965479
            ],
            [
              74.8592108,
              34.1021159
            ],
            [
              74.8597833,
              34.1052921
            ],
            [
              74.8619654,
              34.115421
            ],
            [
              74.8628045,
              34.1171485
            ],
            [
              74.8623039,
              34.1183959
            ],
            [
              74.861244,
              34.1198337
            ],
            [
              74.8605156,
              34.1205499
            ],
            [
              74.8599459,
              34.1212683
            ],
            [
              74.859124,
              34.1227093
            ],
            [
              74.858553,
              34.1234937
            ],
            [
              74.8569582,
              34.123868
            ],
            [
              74.8551332,
              34.1238432
            ],
            [
              74.8547491,
              34.1236325
            ],
            [
              74.8540758,
              34.1226321
            ],
            [
              74.8534197,
              34.1216687
            ],
            [
              74.8525787,
              34.1215168
            ],
            [
              74.8518728,
              34.1213668
            ],
            [
              74.8511309,
              34.1213286
            ],
            [
              74.8501522,
              34.1213153
            ],
            [
              74.8495088,
              34.1214188
            ],
            [
              74.8483901,
              34.1216562
            ],
            [
              74.8477827,
              34.1216479
            ],
            [
              74.8473096,
              34.1216695
            ],
            [
              74.8469008,
              34.1218604
            ],
            [
              74.8465959,
              34.1219124
            ],
            [
              74.8463935,
              34.1219096
            ],
            [
              74.846259,
              34.1218797
            ],
            [
              74.8459265,
              34.1216225
            ],
            [
              74.845941,
              34.1208927
            ],
            [
              74.8460904,
              34.1201648
            ],
            [
              74.8462039,
              34.1195487
            ],
            [
              74.8463477,
              34.1191015
            ],
            [
              74.846761,
              34.118686
            ],
            [
              74.8469724,
              34.1182397
            ],
            [
              74.8470831,
              34.117764
            ],
            [
              74.8471921,
              34.1173724
            ],
            [
              74.8470604,
              34.1172022
            ],
            [
              74.8467573,
              34.11717
            ],
            [
              74.8462798,
              34.1174161
            ],
            [
              74.8459047,
              34.1176075
            ],
            [
              74.8456641,
              34.1178288
            ],
            [
              74.8452187,
              34.1181596
            ],
            [
              74.8448087,
              34.1184066
            ],
            [
              74.8445,
              34.1186551
            ],
            [
              74.8442588,
              34.1189045
            ],
            [
              74.8440524,
              34.1190981
            ],
            [
              74.8438416,
              34.1195164
            ],
            [
              74.843836,
              34.119797
            ],
            [
              74.843696,
              34.1200478
            ],
            [
              74.8435909,
              34.1202429
            ],
            [
              74.843582,
              34.120692
            ],
            [
              74.8436777,
              34.120974
            ],
            [
              74.8439775,
              34.1211507
            ],
            [
              74.8446918,
              34.1220504
            ],
            [
              74.8455385,
              34.1233822
            ],
            [
              74.8456022,
              34.1241752
            ],
            [
              74.8433459,
              34.129887
            ],
            [
              74.8410842,
              34.1358627
            ],
            [
              74.8408678,
              34.1387642
            ],
            [
              74.8409911,
              34.1405481
            ],
            [
              74.8417311,
              34.1432646
            ],
            [
              74.8421083,
              34.1442599
            ],
            [
              74.8435029,
              34.1459952
            ],
            [
              74.844035,
              34.1471907
            ],
            [
              74.8450145,
              34.1498444
            ]
          ]
        ]
      }
    }
  ]
}