{
  "type": "FeatureCollection",
  "properties": {
    "sourceBoundary": "Dal Lake (PLACEHOLDER BOUNDARY, NOT SURVEYED)",
    "zoneCount": 26,
    "generatedBy": "scripts/generate_zones.py (grid-clip tessellation)"
  },
  "features": [
    {
      "type": "Feature",
      "properties": {
        "zoneId": "R1",
        "name": "Zone R1",
        "areaSqm": 1241468.9,
        "centroidLat": 34.142059,
        "centroidLng": 74.865881,
        "defaultRisk": "white"
      },
      "geometry": {
        "type": "Polygon",
        "coordinates": [
          [
            [
              74.87298315206303,
              34.13742548833425
            ],
            [
              74.85965543470869,
              34.13742548833425
            ],
            [
              74.85965543470869,
              34.14693108694174
            ],
            [
              74.865,
              34.148
            ],
            [
              74.87298315206303,
              34.143798341019455
            ],
            [
              74.87298315206303,
              34.13742548833425
            ]
          ]
        ]
      }
    },
    {
      "type": "Feature",
      "properties": {
        "zoneId": "R2",
        "name": "Zone R2",
        "areaSqm": 1038848.8,
        "centroidLat": 34.14143,
        "centroidLng": 74.853778,
        "defaultRisk": "white"
      },
      "geometry": {
        "type": "Polygon",
        "coordinates": [
          [
            [
              74.85965543470869,
              34.13742548833425
            ],
            [
              74.84632771735434,
              34.13742548833425
            ],
            [
              74.84632771735434,
              34.14022603256065
            ],
            [
              74.85,
              34.145
            ],
            [
              74.85965543470869,
              34.14693108694174
            ],
            [
              74.85965543470869,
              34.13742548833425
            ]
          ]
        ]
      }
    },
    {
      "type": "Feature",
      "properties": {
        "zoneId": "R3",
        "name": "Zone R3",
        "areaSqm": 392430.7,
        "centroidLat": 34.139562,
        "centroidLng": 74.876973,
        "defaultRisk": "white"
      },
      "geometry": {
        "type": "Polygon",
        "coordinates": [
          [
            [
              74.87298315206303,
              34.13742548833425
            ],
            [
              74.87298315206303,
              34.143798341019455
            ],
            [
              74.884,
              34.138
            ],
            [
              74.88426515923034,
              34.13742548833425
            ],
            [
              74.87298315206303,
              34.13742548833425
            ]
          ]
        ]
      }
    },
    {
      "type": "Feature",
      "properties": {
        "zoneId": "R4",
        "name": "Zone R4",
        "areaSqm": 1511984.5,
        "centroidLat": 34.131883,
        "centroidLng": 74.852992,
        "defaultRisk": "white"
      },
      "geometry": {
        "type": "Polygon",
        "coordinates": [
          [
            [
              74.84632771735434,
              34.1263403906674
            ],
            [
              74.84632771735434,
              34.13742548833425
            ],
            [
              74.85965543470869,
              34.13742548833425
            ],
            [
              74.85965543470869,
              34.1263403906674
            ],
            [
              74.84632771735434,
              34.1263403906674
            ]
          ]
        ]
      }
    },
    {
      "type": "Feature",
      "properties": {
        "zoneId": "R5",
        "name": "Zone R5",
        "areaSqm": 1511984.5,
        "centroidLat": 34.131883,
        "centroidLng": 74.866319,
        "defaultRisk": "white"
      },
      "geometry": {
        "type": "Polygon",
        "coordinates": [
          [
            [
              74.85965543470869,
              34.1263403906674
            ],
            [
              74.85965543470869,
              34.13742548833425
            ],
            [
              74.87298315206303,
              34.13742548833425
            ],
            [
              74.87298315206303,
              34.1263403906674
            ],
            [
              74.85965543470869,
              34.1263403906674
            ]
          ]
        ]
      }
    },
    {
      "type": "Feature",
      "properties": {
        "zoneId": "R6",
        "name": "Zone R6",
        "areaSqm": 1465586.1,
        "centroidLat": 34.131754,
        "centroidLng": 74.879458,
        "defaultRisk": "white"
      },
      "geometry": {
        "type": "Polygon",
        "coordinates": [
          [
            [
              74.88631086941737,
              34.1263403906674
            ],
            [
              74.87298315206303,
              34.1263403906674
            ],
            [
              74.87298315206303,
              34.13742548833425
            ],
            [
              74.88426515923034,
              34.13742548833425
            ],
            [
              74.88631086941737,
              34.13299311626236
            ],
            [
              74.88631086941737,
              34.1263403906674
            ]
          ]
        ]
      }
    },
    {
      "type": "Feature",
      "properties": {
        "zoneId": "R7",
        "name": "Zone R7",
        "areaSqm": 683945.1,
        "centroidLat": 34.130812,
        "centroidLng": 74.842972,
        "defaultRisk": "white"
      },
      "geometry": {
        "type": "Polygon",
        "coordinates": [
          [
            [
              74.84632771735434,
              34.13742548833425
            ],
            [
              74.84632771735434,
              34.1263403906674
            ],
            [
              74.8371701953337,
              34.1263403906674
            ],
            [
              74.84,
              34.132
            ],
            [
              74.8441734525648,
              34.13742548833425
            ],
            [
              74.84632771735434,
              34.13742548833425
            ]
          ]
        ]
      }
    },
    {
      "type": "Feature",
      "properties": {
        "zoneId": "R8",
        "name": "Zone R8",
        "areaSqm": 1511984.5,
        "centroidLat": 34.120798,
        "centroidLng": 74.852992,
        "defaultRisk": "white"
      },
      "geometry": {
        "type": "Polygon",
        "coordinates": [
          [
            [
              74.84632771735434,
              34.11525529300055
            ],
            [
              74.84632771735434,
              34.1263403906674
            ],
            [
              74.85965543470869,
              34.1263403906674
            ],
            [
              74.85965543470869,
              34.11525529300055
            ],
            [
              74.84632771735434,
              34.11525529300055
            ]
          ]
        ]
      }
    },
    {
      "type": "Feature",
      "properties": {
        "zoneId": "R9",
        "name": "Zone R9",
        "areaSqm": 1511984.5,
        "centroidLat": 34.120798,
        "centroidLng": 74.866319,
        "defaultRisk": "white"
      },
      "geometry": {
        "type": "Polygon",
        "coordinates": [
          [
            [
              74.85965543470869,
              34.11525529300055
            ],
            [
              74.85965543470869,
              34.1263403906674
            ],
            [
              74.87298315206303,
              34.1263403906674
            ],
            [
              74.87298315206303,
              34.11525529300055
            ],
            [
              74.85965543470869,
              34.11525529300055
            ]
          ]
        ]
      }
    },
    {
      "type": "Feature",
      "properties": {
        "zoneId": "R10",
        "name": "Zone R10",
        "areaSqm": 1511984.5,
        "centroidLat": 34.120798,
        "centroidLng": 74.879647,
        "defaultRisk": "white"
      },
      "geometry": {
        "type": "Polygon",
        "coordinates": [
          [
            [
              74.87298315206303,
              34.11525529300055
            ],
            [
              74.87298315206303,
              34.1263403906674
            ],
            [
              74.88631086941737,
              34.1263403906674
            ],
            [
              74.88631086941737,
              34.11525529300055
            ],
            [
              74.87298315206303,
              34.11525529300055
            ]
          ]
        ]
      }
    },
    {
      "type": "Feature",
      "properties": {
        "zoneId": "R11",
        "name": "Zone R11",
        "areaSqm": 462867.6,
        "centroidLat": 34.12051,
        "centroidLng": 74.888368,
        "defaultRisk": "white"
      },
      "geometry": {
        "type": "Polygon",
        "coordinates": [
          [
            [
              74.88631086941737,
              34.11525529300055
            ],
            [
              74.88631086941737,
              34.1263403906674
            ],
            [
              74.88938135815351,
              34.1263403906674
            ],
            [
              74.89,
              34.125
            ],
            [
              74.89097447069994,
              34.11525529300055
            ],
            [
              74.88631086941737,
              34.11525529300055
            ]
          ]
        ]
      }
    },
    {
      "type": "Feature",
      "properties": {
        "zoneId": "R12",
        "name": "Zone R12",
        "areaSqm": 1323299.0,
        "centroidLat": 34.120464,
        "centroidLng": 74.840425,
        "defaultRisk": "white"
      },
      "geometry": {
        "type": "Polygon",
        "coordinates": [
          [
            [
              74.84632771735434,
              34.1263403906674
            ],
            [
              74.84632771735434,
              34.11525529300055
            ],
            [
              74.83376241861096,
              34.11525529300055
            ],
            [
              74.833,
              34.118
            ],
            [
              74.8371701953337,
              34.1263403906674
            ],
            [
              74.84632771735434,
              34.1263403906674
            ]
          ]
        ]
      }
    },
    {
      "type": "Feature",
      "properties": {
        "zoneId": "R13",
        "name": "Zone R13",
        "areaSqm": 1250828.6,
        "centroidLat": 34.109971,
        "centroidLng": 74.840779,
        "defaultRisk": "white"
      },
      "geometry": {
        "type": "Polygon",
        "coordinates": [
          [
            [
              74.84632771735434,
              34.11525529300055
            ],
            [
              74.84632771735434,
              34.1041701953337
            ],
            [
              74.8368416124073,
              34.1041701953337
            ],
            [
              74.83376241861096,
              34.11525529300055
            ],
            [
              74.84632771735434,
              34.11525529300055
            ]
          ]
        ]
      }
    },
    {
      "type": "Feature",
      "properties": {
        "zoneId": "R14",
        "name": "Zone R14",
        "areaSqm": 1511984.5,
        "centroidLat": 34.109713,
        "centroidLng": 74.852992,
        "defaultRisk": "white"
      },
      "geometry": {
        "type": "Polygon",
        "coordinates": [
          [
            [
              74.84632771735434,
              34.1041701953337
            ],
            [
              74.84632771735434,
              34.11525529300055
            ],
            [
              74.85965543470869,
              34.11525529300055
            ],
            [
              74.85965543470869,
              34.1041701953337
            ],
            [
              74.84632771735434,
              34.1041701953337
            ]
          ]
        ]
      }
    },
    {
      "type": "Feature",
      "properties": {
        "zoneId": "R15",
        "name": "Zone R15",
        "areaSqm": 1511984.5,
        "centroidLat": 34.109713,
        "centroidLng": 74.866319,
        "defaultRisk": "white"
      },
      "geometry": {
        "type": "Polygon",
        "coordinates": [
          [
            [
              74.85965543470869,
              34.1041701953337
            ],
            [
              74.85965543470869,
              34.11525529300055
            ],
            [
              74.87298315206303,
              34.11525529300055
            ],
            [
              74.87298315206303,
              34.1041701953337
            ],
            [
              74.85965543470869,
              34.1041701953337
            ]
          ]
        ]
      }
    },
    {
      "type": "Feature",
      "properties": {
        "zoneId": "R16",
        "name": "Zone R16",
        "areaSqm": 1511984.5,
        "centroidLat": 34.109713,
        "centroidLng": 74.879647,
        "defaultRisk": "white"
      },
      "geometry": {
        "type": "Polygon",
        "coordinates": [
          [
            [
              74.87298315206303,
              34.1041701953337
            ],
            [
              74.87298315206303,
              34.11525529300055
            ],
            [
              74.88631086941737,
              34.11525529300055
            ],
            [
              74.88631086941737,
              34.1041701953337
            ],
            [
              74.87298315206303,
              34.1041701953337
            ]
          ]
        ]
      }
    },
    {
      "type": "Feature",
      "properties": {
        "zoneId": "R17",
        "name": "Zone R17",
        "areaSqm": 589951.5,
        "centroidLat": 34.109534,
        "centroidLng": 74.88892,
        "defaultRisk": "white"
      },
      "geometry": {
        "type": "Polygon",
        "coordinates": [
          [
            [
              74.88631086941737,
              34.1041701953337
            ],
            [
              74.88631086941737,
              34.11525529300055
            ],
            [
              74.89097447069994,
              34.11525529300055
            ],
            [
              74.892,
              34.105
            ],
            [
              74.89161275782239,
              34.1041701953337
            ],
            [
              74.88631086941737,
              34.1041701953337
            ]
          ]
        ]
      }
    },
    {
      "type": "Feature",
      "properties": {
        "zoneId": "R18",
        "name": "Zone R18",
        "areaSqm": 308049.0,
        "centroidLat": 34.100387,
        "centroidLng": 74.888079,
        "defaultRisk": "white"
      },
      "geometry": {
        "type": "Polygon",
        "coordinates": [
          [
            [
              74.88631086941737,
              34.09308509766685
            ],
            [
              74.88631086941737,
              34.1041701953337
            ],
            [
              74.89161275782239,
              34.1041701953337
            ],
            [
              74.88643971224454,
              34.09308509766685
            ],
            [
              74.88631086941737,
              34.09308509766685
            ]
          ]
        ]
      }
    },
    {
      "type": "Feature",
      "properties": {
        "zoneId": "R19",
        "name": "Zone R19",
        "areaSqm": 871599.4,
        "centroidLat": 34.099109,
        "centroidLng": 74.842399,
        "defaultRisk": "white"
      },
      "geometry": {
        "type": "Polygon",
        "coordinates": [
          [
            [
              74.84632771735434,
              34.1041701953337
            ],
            [
              74.84632771735434,
              34.09308509766685
            ],
            [
              74.84076596093325,
              34.09308509766685
            ],
            [
              74.838,
              34.1
            ],
            [
              74.8368416124073,
              34.1041701953337
            ],
            [
              74.84632771735434,
              34.1041701953337
            ]
          ]
        ]
      }
    },
    {
      "type": "Feature",
      "properties": {
        "zoneId": "R20",
        "name": "Zone R20",
        "areaSqm": 1511984.5,
        "centroidLat": 34.098628,
        "centroidLng": 74.852992,
        "defaultRisk": "white"
      },
      "geometry": {
        "type": "Polygon",
        "coordinates": [
          [
            [
              74.84632771735434,
              34.09308509766685
            ],
            [
              74.84632771735434,
              34.1041701953337
            ],
            [
              74.85965543470869,
              34.1041701953337
            ],
            [
              74.85965543470869,
              34.09308509766685
            ],
            [
              74.84632771735434,
              34.09308509766685
            ]
          ]
        ]
      }
    },
    {
      "type": "Feature",
      "properties": {
        "zoneId": "R21",
        "name": "Zone R21",
        "areaSqm": 1511984.5,
        "centroidLat": 34.098628,
        "centroidLng": 74.866319,
        "defaultRisk": "white"
      },
      "geometry": {
        "type": "Polygon",
        "coordinates": [
          [
            [
              74.85965543470869,
              34.09308509766685
            ],
            [
              74.85965543470869,
              34.1041701953337
            ],
            [
              74.87298315206303,
              34.1041701953337
            ],
            [
              74.87298315206303,
              34.09308509766685
            ],
            [
              74.85965543470869,
              34.09308509766685
            ]
          ]
        ]
      }
    },
    {
      "type": "Feature",
      "properties": {
        "zoneId": "R22",
        "name": "Zone R22",
        "areaSqm": 1511984.5,
        "centroidLat": 34.098628,
        "centroidLng": 74.879647,
        "defaultRisk": "white"
      },
      "geometry": {
        "type": "Polygon",
        "coordinates": [
          [
            [
              74.87298315206303,
              34.09308509766685
            ],
            [
              74.87298315206303,
              34.1041701953337
            ],
            [
              74.88631086941737,
              34.1041701953337
            ],
            [
              74.88631086941737,
              34.09308509766685
            ],
            [
              74.87298315206303,
              34.09308509766685
            ]
          ]
        ]
      }
    },
    {
      "type": "Feature",
      "properties": {
        "zoneId": "R23",
        "name": "Zone R23",
        "areaSqm": 302171.6,
        "centroidLat": 34.089822,
        "centroidLng": 74.844301,
        "defaultRisk": "white"
      },
      "geometry": {
        "type": "Polygon",
        "coordinates": [
          [
            [
              74.84632771735434,
              34.09308509766685
            ],
            [
              74.84632771735434,
              34.08480084239685
            ],
            [
              74.845,
              34.085
            ],
            [
              74.842,
              34.09
            ],
            [
              74.84076596093325,
              34.09308509766685
            ],
            [
              74.84632771735434,
              34.09308509766685
            ]
          ]
        ]
      }
    },
    {
      "type": "Feature",
      "properties": {
        "zoneId": "R24",
        "name": "Zone R24",
        "areaSqm": 697530.6,
        "centroidLat": 34.090226,
        "centroidLng": 74.878352,
        "defaultRisk": "white"
      },
      "geometry": {
        "type": "Polygon",
        "coordinates": [
          [
            [
              74.87298315206303,
              34.09308509766685
            ],
            [
              74.88631086941737,
              34.09308509766685
            ],
            [
              74.88631086941737,
              34.09280900589436
            ],
            [
              74.885,
              34.09
            ],
            [
              74.87298315206303,
              34.085193260825214
            ],
            [
              74.87298315206303,
              34.09308509766685
            ]
          ]
        ]
      }
    },
    {
      "type": "Feature",
      "properties": {
        "zoneId": "R25",
        "name": "Zone R25",
        "areaSqm": 1266295.8,
        "centroidLat": 34.088425,
        "centroidLng": 74.853231,
        "defaultRisk": "white"
      },
      "geometry": {
        "type": "Polygon",
        "coordinates": [
          [
            [
              74.84632771735434,
              34.09308509766685
            ],
            [
              74.85965543470869,
              34.09308509766685
            ],
            [
              74.85965543470869,
              34.0828016847937
            ],
            [
              74.84632771735434,
              34.08480084239685
            ],
            [
              74.84632771735434,
              34.09308509766685
            ]
          ]
        ]
      }
    },
    {
      "type": "Feature",
      "properties": {
        "zoneId": "R26",
        "name": "Zone R26",
        "areaSqm": 1359613.5,
        "centroidLat": 34.088057,
        "centroidLng": 74.866014,
        "defaultRisk": "white"
      },
      "geometry": {
        "type": "Polygon",
        "coordinates": [
          [
            [
              74.85965543470869,
              34.09308509766685
            ],
            [
              74.87298315206303,
              34.09308509766685
            ],
            [
              74.87298315206303,
              34.085193260825214
            ],
            [
              74.865,
              34.082
            ],
            [
              74.85965543470869,
              34.0828016847937
            ],
            [
              74.85965543470869,
              34.09308509766685
            ]
          ]
        ]
      }
    }
  ]
}